{
  "type": "FeatureCollection",
  "features": [
    {
      "type": "Feature",
      "properties": {
        "norad_id": 66505,
        "name": "STARLINK-34766",
        "group": "last-30-days",
        "lat": 40.84497440173759,
        "lon": -105.52473097523409,
        "alt_km": 339.1979001173031,
        "timestamp": "2025-12-02T08:59:31.503805+00:00",
        "meta_object_name": "STARLINK-34766",
        "meta_object_id": "2025-263W",
        "meta_epoch": "2025-12-02T04:00:03.998880",
        "meta_mean_motion": 15.7504247,
        "meta_eccentricity": 0.0001845,
        "meta_inclination": 42.9986,
        "meta_ra_of_asc_node": 187.6372,
        "meta_arg_of_pericenter": 267.8445,
        "meta_mean_anomaly": 65.1926,
        "meta_ephemeris_type": 0,
        "meta_classification_type": "U",
        "meta_norad_cat_id": 66505,
        "meta_element_set_no": 999,
        "meta_rev_at_epoch": 393,
        "meta_bstar": -6.4656e-05,
        "meta_mean_motion_dot": -0.00010399,
        "meta_mean_motion_ddot": 0,
        "tle_line1": "1 66505U 25263W   25336.16671295 -.00010399  00000+0 -64656-4 0  9990",
        "tle_line2": "2 66505  42.9986 187.6372 0001845 267.8445  65.1926 15.75042470  3939"
      },
      "geometry": {
        "type": "Point",
        "coordinates": [
          -105.52473097523409,
          40.84497440173759
        ]
      }
    },
    {
      "type": "Feature",
      "properties": {
        "norad_id": 66506,
        "name": "STARLINK-34765",
        "group": "last-30-days",
        "lat": 41.30086664331042,
        "lon": -103.09032289342811,
        "alt_km": 339.06423903459927,
        "timestamp": "2025-12-02T08:59:31.503817+00:00",
        "meta_object_name": "STARLINK-34765",
        "meta_object_id": "2025-263X",
        "meta_epoch": "2025-12-02T04:00:03.998880",
        "meta_mean_motion": 15.74968645,
        "meta_eccentricity": 0.0001821,
        "meta_inclination": 42.9985,
        "meta_ra_of_asc_node": 187.6331,
        "meta_arg_of_pericenter": 278.1918,
        "meta_mean_anomaly": 56.7637,
        "meta_ephemeris_type": 0,
        "meta_classification_type": "U",
        "meta_norad_cat_id": 66506,
        "meta_element_set_no": 999,
        "meta_rev_at_epoch": 393,
        "meta_bstar": 0.0010117,
        "meta_mean_motion_dot": 0.00157384,
        "meta_mean_motion_ddot": 0,
        "tle_line1": "1 66506U 25263X   25336.16671295  .00157384  00000+0  10117-2 0  9996",
        "tle_line2": "2 66506  42.9985 187.6331 0001821 278.1918  56.7637 15.74968645  3933"
      },
      "geometry": {
        "type": "Point",
        "coordinates": [
          -103.09032289342811,
          41.30086664331042
        ]
      }
    },
    {
      "type": "Feature",
      "properties": {
        "norad_id": 66507,
        "name": "STARLINK-34767",
        "group": "last-30-days",
        "lat": 42.06878366991286,
        "lon": -98.02164979335133,
        "alt_km": 338.8908914867852,
        "timestamp": "2025-12-02T08:59:31.503827+00:00",
        "meta_object_name": "STARLINK-34767",
        "meta_object_id": "2025-263Y",
        "meta_epoch": "2025-12-02T04:00:03.998880",
        "meta_mean_motion": 15.75073399,
        "meta_eccentricity": 0.0001738,
        "meta_inclination": 42.9985,
        "meta_ra_of_asc_node": 187.6234,
        "meta_arg_of_pericenter": 276.1031,
        "meta_mean_anomaly": 62.6723,
        "meta_ephemeris_type": 0,
        "meta_classification_type": "U",
        "meta_norad_cat_id": 66507,
        "meta_element_set_no": 999,
        "meta_rev_at_epoch": 393,
        "meta_bstar": -0.00036065,
        "meta_mean_motion_dot": -0.00055597,
        "meta_mean_motion_ddot": 0,
        "tle_line1": "1 66507U 25263Y   25336.16671295 -.00055597  00000+0 -36065-3 0  9993",
        "tle_line2": "2 66507  42.9985 187.6234 0001738 276.1031  62.6723 15.75073399  3933"
      },
      "geometry": {
        "type": "Point",
        "coordinates": [
          -98.02164979335133,
          42.06878366991286
        ]
      }
    },
    {
      "type": "Feature",
      "properties": {
        "norad_id": 66508,
        "name": "STARLINK-35608",
        "group": "last-30-days",
        "lat": 42.785183504089225,
        "lon": -90.29607195634546,
        "alt_km": 338.9219952218691,
        "timestamp": "2025-12-02T08:59:31.503837+00:00",
        "meta_object_name": "STARLINK-35608",
        "meta_object_id": "2025-263Z",
        "meta_epoch": "2025-12-02T04:00:03.998880",
        "meta_mean_motion": 15.75060988,
        "meta_eccentricity": 0.0001837,
        "meta_inclination": 42.9985,
        "meta_ra_of_asc_node": 187.6087,
        "meta_arg_of_pericenter": 272.6235,
        "meta_mean_anomaly": 71.9116,
        "meta_ephemeris_type": 0,
        "meta_classification_type": "U",
        "meta_norad_cat_id": 66508,
        "meta_element_set_no": 999,
        "meta_rev_at_epoch": 393,
        "meta_bstar": -0.00033673,
        "meta_mean_motion_dot": -0.00051936,
        "meta_mean_motion_ddot": 0,
        "tle_line1": "1 66508U 25263Z   25336.16671295 -.00051936  00000+0 -33673-3 0  9999",
        "tle_line2": "2 66508  42.9985 187.6087 0001837 272.6235  71.9116 15.75060988  3936"
      },
      "geometry": {
        "type": "Point",
        "coordinates": [
          -90.29607195634546,
          42.785183504089225
        ]
      }
    },
    {
      "type": "Feature",
      "properties": {
        "norad_id": 66509,
        "name": "STARLINK-35598",
        "group": "last-30-days",
        "lat": 42.91696829924971,
        "lon": -79.83005778205633,
        "alt_km": 338.7785329391236,
        "timestamp": "2025-12-02T08:59:31.503847+00:00",
        "meta_object_name": "STARLINK-35598",
        "meta_object_id": "2025-263AA",
        "meta_epoch": "2025-12-02T04:00:03.998880",
        "meta_mean_motion": 15.75069655,
        "meta_eccentricity": 0.0001651,
        "meta_inclination": 43.0022,
        "meta_ra_of_asc_node": 187.5879,
        "meta_arg_of_pericenter": 273.6516,
        "meta_mean_anomaly": 78.5548,
        "meta_ephemeris_type": 0,
        "meta_classification_type": "U",
        "meta_norad_cat_id": 66509,
        "meta_element_set_no": 999,
        "meta_rev_at_epoch": 393,
        "meta_bstar": -0.00040133,
        "meta_mean_motion_dot": -0.00061759,
        "meta_mean_motion_ddot": 0,
        "tle_line1": "1 66509U 25263AA  25336.16671295 -.00061759  00000+0 -40133-3 0  9993",
        "tle_line2": "2 66509  43.0022 187.5879 0001651 273.6516  78.5548 15.75069655  3938"
      },
      "geometry": {
        "type": "Point",
        "coordinates": [
          -79.83005778205633,
          42.91696829924971
        ]
      }
    },
    {
      "type": "Feature",
      "properties": {
        "norad_id": 66510,
        "name": "STARLINK-35600",
        "group": "last-30-days",
        "lat": 42.9069194317616,
        "lon": -87.69090846242592,
        "alt_km": 338.9356944348301,
        "timestamp": "2025-12-02T08:59:31.503857+00:00",
        "meta_object_name": "STARLINK-35600",
        "meta_object_id": "2025-263AB",
        "meta_epoch": "2025-12-02T04:00:03.998880",
        "meta_mean_motion": 15.75068283,
        "meta_eccentricity": 0.0001938,
        "meta_inclination": 42.9986,
        "meta_ra_of_asc_node": 187.603,
        "meta_arg_of_pericenter": 271.4956,
        "meta_mean_anomaly": 74.9474,
        "meta_ephemeris_type": 0,
        "meta_classification_type": "U",
        "meta_norad_cat_id": 66510,
        "meta_element_set_no": 999,
        "meta_rev_at_epoch": 393,
        "meta_bstar": -0.00021137,
        "meta_mean_motion_dot": -0.00032862,
        "meta_mean_motion_ddot": 0,
        "tle_line1": "1 66510U 25263AB  25336.16671295 -.00032862  00000+0 -21137-3 0  9991",
        "tle_line2": "2 66510  42.9986 187.6030 0001938 271.4956  74.9474 15.75068283  3933"
      },
      "geometry": {
        "type": "Point",
        "coordinates": [
          -87.69090846242592,
          42.9069194317616
        ]
      }
    },
    {
      "type": "Feature",
      "properties": {
        "norad_id": 66511,
        "name": "STARLINK-35444",
        "group": "last-30-days",
        "lat": 42.97121707691056,
        "lon": -82.45525541042663,
        "alt_km": 338.8374498969506,
        "timestamp": "2025-12-02T08:59:31.503867+00:00",
        "meta_object_name": "STARLINK-35444",
        "meta_object_id": "2025-263AC",
        "meta_epoch": "2025-12-02T04:00:03.998880",
        "meta_mean_motion": 15.75070561,
        "meta_eccentricity": 0.0001726,
        "meta_inclination": 42.9985,
        "meta_ra_of_asc_node": 187.5934,
        "meta_arg_of_pericenter": 269.7433,
        "meta_mean_anomaly": 80.5416,
        "meta_ephemeris_type": 0,
        "meta_classification_type": "U",
        "meta_norad_cat_id": 66511,
        "meta_element_set_no": 999,
        "meta_rev_at_epoch": 393,
        "meta_bstar": -0.00050424,
        "meta_mean_motion_dot": -0.00077335,
        "meta_mean_motion_ddot": 0,
        "tle_line1": "1 66511U 25263AC  25336.16671295 -.00077335  00000+0 -50424-3 0  9997",
        "tle_line2": "2 66511  42.9985 187.5934 0001726 269.7433  80.5416 15.75070561  3931"
      },
      "geometry": {
        "type": "Point",
        "coordinates": [
          -82.45525541042663,
          42.97121707691056
        ]
      }
    }
  ]
}